NORAD_CAT_ID,OBJECT_NAME,OBJECT_TYPE,EPOCH,MEAN_MOTION,ECCENTRICITY,INCLINATION,RA_OF_ASC_NODE,ARG_OF_PERICENTER,MEAN_ANOMALY,BSTAR,MEAN_MOTION_DOT,MEAN_MOTION_DDOT,TLE_LINE0,TLE_LINE1,TLE_LINE2,SEMIMAJOR_AXIS,PERIOD,APOGEE,PERIGEE,DECAYED
53529.0,STARLINK-4478,PAYLOAD,2024-04-25 16:54:35,15.08809127,0.0001406,53.2164,260.1734,67.4051,292.709,0.002567,0.00040768,0.0,0 STARLINK-4478,1 53529U 22101C   24116.70457327  .00040768  00000-0  25670-2 0  9996,2 53529  53.2164 260.1734 0001406  67.4051 292.7090 15.08809127 93051,6917.975,95.44,540.812,538.867,0.0
53529.0,STARLINK-4478,PAYLOAD,2024-04-26 08:48:28,15.08825686,0.0001318,53.2163,257.1986,82.9738,277.1404,0.0022983,0.00036465,0.0,0 STARLINK-4478,1 53529U 22101C   24117.36699112  .00036465  00000-0  22983-2 0  9992,2 53529  53.2163 257.1986 0001318  82.9738 277.1404 15.08825686 93156,6917.924,95.438,540.701,538.877,0.0
53529.0,STARLINK-4478,PAYLOAD,2024-04-26 13:34:37,15.08836815,0.0001346,53.2163,256.3055,81.3842,278.7302,0.0025983,0.00041303,0.0,0 STARLINK-4478,1 53529U 22101C   24117.56571343  .00041303  00000-0  25983-2 0  9999,2 53529  53.2163 256.3055 0001346  81.3842 278.7302 15.08836815 93187,6917.89,95.438,540.686,538.824,0.0
53529.0,STARLINK-4478,PAYLOAD,2024-04-26 16:45:23,15.08844442,0.0001481,53.2157,255.7111,77.8253,282.2905,0.0025242,0.00040119,0.0,0 STARLINK-4478,1 53529U 22101C   24117.69819386  .00040119  00000-0  25242-2 0  9997,2 53529  53.2157 255.7111 0001481  77.8253 282.2905 15.08844442 93209,6917.867,95.437,540.756,538.707,0.0
53529.0,STARLINK-4478,PAYLOAD,2024-04-27 02:17:42,15.08850248,0.0001645,53.216,253.9258,87.5326,272.5855,0.0015368,0.00024262,0.0,0 STARLINK-4478,1 53529U 22101C   24118.09563341  .00024262  00000-0  15368-2 0  9998,2 53529  53.2160 253.9258 0001645  87.5326 272.5855 15.08850248 93269,6917.849,95.437,540.852,538.576,0.0
53529.0,STARLINK-4478,PAYLOAD,2024-04-27 15:00:47,15.08867371,0.0001339,53.2137,251.5468,86.5363,273.5782,0.0012823,0.00020194,0.0,0 STARLINK-4478,1 53529U 22101C   24118.62554503  .00020194  00000-0  12823-2 0  9990,2 53529  53.2137 251.5468 0001339  86.5363 273.5782 15.08867371 93344,6917.797,95.436,540.588,538.735,0.0
53529.0,STARLINK-4478,PAYLOAD,2024-04-27 18:11:32,15.08886052,0.0001461,53.2151,250.9532,85.278,274.8379,0.0018083,0.00028645,0.0,0 STARLINK-4478,1 53529U 22101C   24118.75802021  .00028645  00000-0  18083-2 0  9998,2 53529  53.2151 250.9532 0001461  85.2780 274.8379 15.08886052 93365,6917.74,95.435,540.615,538.594,0.0
53529.0,STARLINK-4478,PAYLOAD,2024-04-28 02:08:28,15.08859668,0.0001432,53.2149,249.4696,81.2039,278.9116,8.1543e-05,1.011e-05,0.0,0 STARLINK-4478,1 53529U 22101C   24119.08921947  .00001011  00000-0  81543-4 0  9995,2 53529  53.2149 249.4696 0001432  81.2039 278.9116 15.08859668 93410,6917.82,95.436,540.676,538.695,0.0
53529.0,STARLINK-4478,PAYLOAD,2024-04-28 13:16:10,15.08841951,0.0001941,53.2159,247.3849,96.6109,263.5104,-0.00014152,-2.54e-05,0.0,0 STARLINK-4478,1 53529U 22101C   24119.55290316 -.00002540  00000-0 -14152-3 0  9997,2 53529  53.2159 247.3849 0001941  96.6109 263.5104 15.08841951 93481,6917.874,95.437,541.082,538.397,0.0
53529.0,STARLINK-4478,PAYLOAD,2024-04-28 14:51:33,15.08844458,0.0001982,53.2159,247.0864,106.7774,253.3435,-1.3476e-05,-5.03e-06,0.0,0 STARLINK-4478,1 53529U 22101C   24119.61914222 -.00000503  00000-0 -13476-4 0  9999,2 53529  53.2159 247.0864 0001982 106.7774 253.3435 15.08844458 93491,6917.867,95.437,541.103,538.361,0.0
53529.0,STARLINK-4478,PAYLOAD,2024-04-29 14:42:21,15.0884551,0.0001404,53.2148,242.6288,95.1917,264.9235,0.00041831,6.377e-05,0.0,0 STARLINK-4478,1 53529U 22101C   24120.61274415  .00006377  00000-0  41831-3 0  9992,2 53529  53.2148 242.6288 0001404  95.1917 264.9235 15.08845510 93642,6917.864,95.437,540.7,538.757,0.0
53529.0,STARLINK-4478,PAYLOAD,2024-04-30 12:57:44,15.08845032,0.0001532,53.2158,238.4658,92.4021,267.7147,0.00020094,2.912e-05,0.0,0 STARLINK-4478,1 53529U 22101C   24121.54010314  .00002912  00000-0  20094-3 0  9990,2 53529  53.2158 238.4658 0001532  92.4021 267.7147 15.08845032 93782,6917.865,95.437,540.79,538.67,0.0
53529.0,STARLINK-4478,PAYLOAD,2024-04-30 14:33:07,15.08846562,0.0001489,53.2153,238.1676,96.7078,263.4084,0.00026584,3.946e-05,0.0,0 STARLINK-4478,1 53529U 22101C   24121.60634249  .00003946  00000-0  26584-3 0  9994,2 53529  53.2153 238.1676 0001489  96.7078 263.4084 15.08846562 93797,6917.86,95.437,540.755,538.695,0.0
53529.0,STARLINK-4478,PAYLOAD,2024-05-01 14:23:54,15.0885214,0.0001279,53.2162,233.7089,94.4668,265.647,0.00020537,2.983e-05,0.0,0 STARLINK-4478,1 53529U 22101C   24122.59993566  .00002983  00000-0  20537-3 0  9995,2 53529  53.2162 233.7089 0001279  94.4668 265.6470 15.08852140 93942,6917.843,95.437,540.593,538.823,0.0
53529.0,STARLINK-4478,PAYLOAD,2024-05-01 23:56:13,15.0884646,0.000112,53.216,231.9258,92.9588,267.1532,6.2327e-05,7.04e-06,0.0,0 STARLINK-4478,1 53529U 22101C   24122.99737586  .00000704  00000-0  62327-4 0  9990,2 53529  53.2160 231.9258 0001120  92.9588 267.1532 15.08846460 94009,6917.861,95.437,540.5,538.951,0.0
53529.0,STARLINK-4478,PAYLOAD,2024-05-02 12:39:18,15.08834732,0.0001386,53.2153,229.547,98.4882,261.6268,-9.6548e-05,-1.824e-05,0.0,0 STARLINK-4478,1 53529U 22101C   24123.52730172 -.00001824  00000-0 -96548-4 0  9992,2 53529  53.2153 229.5470 0001386  98.4882 261.6268 15.08834732 94084,6917.896,95.438,540.72,538.803,0.0
53529.0,STARLINK-4478,PAYLOAD,2024-05-02 14:14:42,15.08837234,0.0001315,53.2162,229.249,104.8849,255.2289,2.2325e-05,6.7e-07,0.0,0 STARLINK-4478,1 53529U 22101C   24123.59354464  .00000067  00000-0  22325-4 0  9993,2 53529  53.2162 229.2490 0001315 104.8849 255.2289 15.08837234 94093,6917.889,95.438,540.664,538.844,0.0
53529.0,STARLINK-4478,PAYLOAD,2024-05-02 23:47:00,15.08846521,0.0001138,53.2168,227.462,91.1843,268.928,0.00010549,1.392e-05,0.0,0 STARLINK-4478,1 53529U 22101C   24123.99097586  .00001392  00000-0  10549-3 0  9992,2 53529  53.2168 227.4620 0001138  91.1843 268.9280 15.08846521 94157,6917.86,95.437,540.513,538.938,0.0
53529.0,STARLINK-4478,PAYLOAD,2024-05-03 14:05:27,15.08853859,0.000153,53.216,224.7863,90.0865,270.0302,0.00032648,4.914e-05,0.0,0 STARLINK-4478,1 53529U 22101C   24124.58712883  .00004914  00000-0  32648-3 0  9999,2 53529  53.2160 224.7863 0001530  90.0865 270.0302 15.08853859 94247,6917.838,95.437,540.761,538.645,0.0
53529.0,STARLINK-4478,PAYLOAD,2024-05-03 15:40:50,15.08857492,0.0001543,53.2167,224.4891,91.4737,268.6432,0.00037284,5.654e-05,0.0,0 STARLINK-4478,1 53529U 22101C   24124.65336706  .00005654  00000-0  37284-3 0  9996,2 53529  53.2167 224.4891 0001543  91.4737 268.6432 15.08857492 94254,6917.827,95.436,540.759,538.625,0.0
53529.0,STARLINK-4478,PAYLOAD,2024-05-03 23:37:47,15.08834321,0.0001393,53.2152,223.0018,94.8495,265.2656,-8.7697e-05,-1.683e-05,0.0,0 STARLINK-4478,1 53529U 22101C   24124.98457645 -.00001683  00000-0 -87697-4 0  9992,2 53529  53.2152 223.0018 0001393  94.8495 265.2656 15.08834321 94308,6917.898,95.438,540.726,538.799,0.0
53529.0,STARLINK-4478,PAYLOAD,2024-05-04 12:20:53,15.08816143,0.0001536,53.2163,220.6244,95.935,264.1817,-0.00035741,-5.968e-05,0.0,0 STARLINK-4478,1 53529U 22101C   24125.51450903 -.00005968  00000-0 -35741-3 0  9994,2 53529  53.2163 220.6244 0001536  95.9350 264.1817 15.08816143 94382,6917.953,95.439,540.881,538.756,0.0
53529.0,STARLINK-4478,PAYLOAD,2024-05-04 23:28:35,15.08829103,0.0001265,53.2155,218.5415,100.2245,259.8889,-1.759e-05,-5.68e-06,0.0,0 STARLINK-4478,1 53529U 22101C   24125.97818834 -.00000568  00000-0 -17590-4 0  9999,2 53529  53.2155 218.5415 0001265 100.2245 259.8889 15.08829103 94459,6917.914,95.438,540.654,538.904,0.0
53529.0,STARLINK-4478,PAYLOAD,2024-05-05 13:47:04,15.08846722,0.0001171,53.2151,215.8655,104.4284,255.6838,0.0011972,0.0001882,0.0,0 STARLINK-4478,1 53529U 22101C   24126.57435256  .00018820  00000-0  11972-2 0  9993,2 53529  53.2151 215.8655 0001171 104.4284 255.6838 15.08846722 94540,6917.86,95.437,540.535,538.915,0.0
53529.0,STARLINK-4478,PAYLOAD,2024-05-06 12:02:27,15.08869898,0.0001166,53.2152,211.7023,98.5164,261.596,0.0010616,0.00016662,0.0,0 STARLINK-4478,1 53529U 22101C   24127.50170362  .00016662  00000-0  10616-2 0  9997,2 53529  53.2152 211.7023 0001166  98.5164 261.5960 15.08869898 94685,6917.789,95.436,540.461,538.847,0.0
53529.0,STARLINK-4478,PAYLOAD,2024-05-07 05:31:41,15.08851235,0.000122,53.2159,208.4316,77.1289,282.9839,0.0001903,2.743e-05,0.0,0 STARLINK-4478,1 53529U 22101C   24128.23034080  .00002743  00000-0  19030-3 0  9999,2 53529  53.2159 208.4316 0001220  77.1289 282.9839 15.08851235 94792,6917.846,95.437,540.555,538.867,0.0
53529.0,STARLINK-4478,PAYLOAD,2024-05-07 11:53:13,15.08854129,0.000118,53.2159,207.242,75.345,284.7673,0.00047753,7.323e-05,0.0,0 STARLINK-4478,1 53529U 22101C   24128.49529940  .00007323  00000-0  47753-3 0  9993,2 53529  53.2159 207.2420 0001180  75.3450 284.7673 15.08854129 94836,6917.837,95.437,540.519,538.886,0.0
53529.0,STARLINK-4478,PAYLOAD,2024-05-08 11:44:00,15.08871597,0.0001217,53.2153,202.7816,69.5384,290.5738,0.0010887,0.00017096,0.0,0 STARLINK-4478,1 53529U 22101C   24129.48889189  .00017096  00000-0  10887-2 0  9992,2 53529  53.2153 202.7816 0001217  69.5384 290.5738 15.08871597 94982,6917.784,95.436,540.491,538.807,0.0
53529.0,STARLINK-4478,PAYLOAD,2024-05-08 21:16:18,15.08867512,0.0001423,53.2139,200.9971,75.2038,284.9112,0.00030684,4.602e-05,0.0,0 STARLINK-4478,1 53529U 22101C   24129.88633001  .00004602  00000-0  30684-3 0  9993,2 53529  53.2139 200.9971 0001423  75.2038 284.9112 15.08867512 95040,6917.796,95.436,540.646,538.677,0.0
53529.0,STARLINK-4478,PAYLOAD,2024-05-09 05:13:14,15.08857467,0.0002565,53.2157,199.5107,85.3505,274.778,0.00035579,5.381e-05,0.0,0 STARLINK-4478,1 53529U 22101C   24130.21753141  .00005381  00000-0  35579-3 0  9993,2 53529  53.2157 199.5107 0002565  85.3505 274.7780 15.08857467 95094,6917.827,95.436,541.466,537.918,0.0
